"IDExhibitor","IDSector","Name","Address","PostalCode","Location","City","Phone","Fax","Email","URL","Stand"
1,1,"ACEITES DEL SUR-COOSUR, S.A.","CTRA. DE LA CAROLINA, KM 29","23220","VILCHES","Ja","954690900","954690450","info@acesur.com","www.acesur.com","2115-2116
"
2,12,"AECOVI","URB. PIE DE REY BQ. 3 LOCAL IZQ.","11407","JEREZ DE LA FRONTERA","C","956180873","956180301","carmen@aecovi-jerez.com","www.aecovi-jerez.com","2210
"
3,2,"AECOVI","URB. PIE DE REY BQ. 3 LOCAL IZQ.","11407","JEREZ DE LA FRONTERA","C","956180873","956180301","carmen@aecovi-jerez.com","www.aecovi-jerez.com","2210
"
4,6,"AL-ANDALUS DELICATESSEN","CA","18420","LANJARON","Granada","958772111","958772228","info@alandalus.e.telefonica.net","","2053
"
5,5,"ALMENSUR","CAMINO DE LA ALMENDRERA, S/N","29580","ESTACION DE CARTAMA","M","952420020","952420825","comercial@almensur.com","www.almensur.com","2137"
6,7,"CATUNAMBÃš","FOSFORO, 1 P.I. CALONGE","41007","SEVILLA","Sevilla","954367410","954361262","hogar@catunambu.es","www.catunambu.com","2084-2085"
7,6,"ANDALUZA DE MIELES","C/APARICIO, S/N","41807","ESPARTINAS","Sevilla","954113032","955710268","info@andaluzademieles.com","www.andaluzademieles.com","2198
"
8,14,"ARROCES DE DOÃ‘ANA","POLG.IND.EL PUNTAL NAVE, 1-B","41140","ISLA MAYOR","Sevilla","955773046","955773964","arrocesdedonana@gmail.com","","2136"
9,9,"ASOC. ANDALUZA FAB. SALAZONES Y AHUMADOS","GLORIETA DEL AGUA, 4 2","41940","TOMARES","Sevilla","954151823","954157592","salazones.ahumados@telefonica.net","","2191
"
10,9,"TUNAMAR","REC.INT.ZONA FRANCA, MUELLE RIBERA, S/N","11011","CADIZ","C","956200971","956200972","antonio@tunamar.eu","www.tunamar.eu","2079
"
11,12,"BODEGAS GONZALEZ PALACIOS","CONSOLACION , 60","41740","LEBRIJA","Sevilla","955972785","955974084","bodegas@gonzalezpalacios.com","www.gonzalezpalacios.com","2260
"
12,1,"C.R.D.O. ANTEQUERA","CTRA. CORDOBA, S/N","29200","ANTEQUERA","M","952841451","952840359","info@doantequera.org","www.doantequera.org","2029
"
13,1,"C.R.D.O. SIERRA DE CADIZ","POLIGONO INDUSTRIAL, S/N","11690","OLVERA","C","956130034","956120511","aceitecadiz@interbook.net","www.sierradecadiz.com","2039
"
14,1,"C.R.D.O. SIERRA DE SEGURA","P.I. LLANOS DE ARMIJO, S/N","23360","LA PUERTA DE SEGURA","Ja","953486063","953486063","gerencia@dosierradesegura.com","www.dosierradesegura.com","2157-2160
"
15,1,"C.R.DEN.ORIGEN MONTORO-ADAMUZ","ALTO GUADALQUIVIR, 6","14430","ADAMUZ","C","957166496","957166496","info@montoro-adamuz.com","www.montoro-adamuz.com","2029
"
16,10,"CONSORCIO DE JABUGO","ISAAC NEWTON, 3 MOD. 3","41092","SEVILLA","Sevilla","955024694","955024695","iberico@consorciodejabugo.com","www.consorciodejabugo.com","2057
"
17,11,"CONSORCIO DE JABUGO","ISAAC NEWTON, 3 MOD. 3","41092","SEVILLA","Sevilla","955024694","955024695","iberico@consorciodejabugo.com","www.consorciodejabugo.com","2057
"
18,10,"CORSEVILLA","CTRA. DE GUADALCANAL,S/N,  KM 0","41370","CAZALLA DE LA SIERRA","Sevilla","954889400","954889805","queseria@corsevilla.es","www.corsevilla.es","2052
"
19,11,"CORSEVILLA","CTRA. DE GUADALCANAL,S/N,  KM 1","41370","CAZALLA DE LA SIERRA","Sevilla","954889400","954889805","queseria@corsevilla.es","www.corsevilla.es","2052
"
20,16,"DIPUTACIÃ“N PROVINCIAL DE ALMERÃA","HNOS.MACHADO,27","04071","ALMERIA","Almeria","950211318","9540211324","jgomezan@dipalme.org","www.dipalme.org","2149-2156"
21,16,"DIPUTACION PROVINCIAL DE JAEN","PLAZA DE SAN FRANCISCO, S/N","23071","JAEN","Ja","953248000","953248030","aceitedeoliva@promojaen.es","www.dipujaen.es","2043-2048"
22,14,"DUENDESOL","CTRA. ALMEDINILLA-FUENTETOJAR,S /N","14812","ALMEDINILLA","C","957703461","957403445","comercial@grupoaepsa.com","www.grupoaepsa.com","2195
"
23,8,"E. MORENO","AVDA. DE ANDALUCIA, 65","41560","ESTEPA","Sevilla","955912696","955912908","exportacion@emoreno.com","www.emoreno.com","2142
"
24,4,"EBRO PULEVA, S.A.","PASEO CASTELLANA, 20 3","28046","MADRID","Madrid","917245250","917245341","comunicacion@ebropuleva.com","www.ebropuleva.com","2163-2166
"
25,11,"EBRO PULEVA, S.A.","PASEO CASTELLANA, 20 3","28046","MADRID","Madrid","917245250","917245341","comunicacion@ebropuleva.com","www.ebropuleva.com","2163-2166
"
26,14,"EBRO PULEVA, S.A.","PASEO CASTELLANA, 20 3","28046","MADRID","Madrid","917245250","917245341","comunicacion@ebropuleva.com","www.ebropuleva.com","2163-2166
"
27,14,"EL TIO DE LAS PAPAS","LA CRUZ,48","29328","SIERRA DE YEGUAS","M","952746571","952746571","info@eltiodelaspapas.com","www.eltiodelaspapas.com","2051
"
28,10,"CUYAR JABUGO","MARQUES DE ARACENA,78","21360","EL REPILADO","Huelva","959122612","959122614","cuyar@embutidosjabugo.com","www.embutidosjabugo.com","2090
"
29,9,"FED. AND.COMPRADORES DE PESCADOS EN LONJA","EMILIO AGUILAR, 16","21410","ISLA CRISTINA","Huelva","685538664","959332902","fedacopesca@fedacopesca.es","www.fedacopesca.es","2202
"
30,15,"LOS ALCALAREÃ‘OS","MASCARETA, 53","41940","TOMARES","Sevilla","954150198","954150198","yeye@losalcalarenos.e.telefonica.net","","2037"
31,9,"HERME ORTIZ","JUAN DE LEDESMA, 35","41006","SEVILLA","Sevilla","902223212","954934304","enro@hermeortiz.com","www.hermeortiz.com","2201
"
32,4,"HUERTA CAMPORICO","CTRA. BURGUILLOS-VILLAVERDE P.I. CUARTO","41220","BURGUILLOS","Sevilla","955738980","955738980","juancarloscamporico@yahoo.es","www.camporico.es","2140
"
33,12,"HUERTA DE ALBALA","MURILLO, 11","11500","VISTAHERMOSA","C","647746047","856023053","bodega@huertadealbala.com","www.huertadealbala.com","2025
"
34,10,"IBESA","POLG.INDUSTRIAL CARNICO, S/N","14440","VILLANUEVA DE CORDOBA","C","957122000","957121981","info@ibesa.es","www.ibesa.es","2214
"
35,10,"INDUSTRIAS CARNICAS CAMPOREAL","ARQUITECTURA, 3 TORRE 7 PLTA. 11 MOD. 1","41015","SEVILLA","Sevilla","954311334","954311333","jjramblado@camporeal.eu","www.camporeal.ue","2082
"
36,8,"INES ROSALES","P.E. VEREDA DE LA HERRERIA, S/N","41830","HUEVAR DE ALJARAFE","Sevilla","954756427","954756335","grupo@inesrosales.com","www.inesrosales.com","2023-2024
"
37,10,"JAMONES LAZO","AVDA. PORTUGAL, 6","21230","CORTEGANA","Huelva","959131560","959131869","alahore@jamoneslazo.com","www.jamoneslazo.com","2135-2138
"
38,16,"LANDALUZ","AVDA. DE GRECIA, 8","41012","SEVILLA","Sevilla","954234849","954623206","comunicacion@landaluz.es","www.landaluz.es","2107-2112
"
39,3,"MARISCOS CASTELAR","P.I.EL CONDADO CTR. LINARES/ORCERA KM.49","23250","SANTISTEBAN DEL PUERTO","Ja","953401593","953402779","","www.mariscoscastellar.es","2056
"
40,9,"MARISCOS CASTELAR","P.I.EL CONDADO CTR. LINARES/ORCERA KM.50","23250","SANTISTEBAN DEL PUERTO","Ja","953401593","953402779","","www.mariscoscastellar.es","2056
"
41,9,"MARISCOS FRESCOHUELVA","LONJA PESCADERIA, MOD. 83,84,91","21001","HUELVA","Huelva","959284032","959284032","a.jimenez@frescohuelva.com","www.frescohuelva.com","2215
"
42,9,"MARISCOS MENDEZ","POLG. PESQUERO NORTE, S/N","21002","HUELVA","Huelva","959281785","959541907","info@mariscosmendez.com","www.mariscosmendez.com","2032
"
43,15,"MARKA'S","PASEO DEL PRADO, 51","11600","UBRIQUE","C","956460483","956461819","comercial@marka-s.com","www.marka-s.com","2009
"
44,10,"MATADERO DE LA SIERRA MORENA","AVDA. GARCIA MORATO, EDF. GILARESA OF. 9","41011","SEVILLA","Sevilla","954229256","954211176","laureline@sierradesevilla.com","www.sierradesevilla.com","2206-2207
"
45,10,"PROLONGO","PLAZA PROLONGO, 1","29580","CARTAMA","M","952420000","952420115","prolongo@prolongo.es","www.prolongo.es","2034
"
46,1,"OLEUM VIRIDE","ALTA, 10","11688","ZAHARA DE LA SIERRA","C","956139006","956139007","gerencia@oleumviride.com","www.oleumviride.com","2141
"
47,9,"LA ALMADRABA","LUIS DE MORALES, 32 PLANTA 3","41018","SEVILLA","Sevilla","954987938","954988692","anasantos@atundealmadraba.com","www.almadrabasandaluzas.com","2088-2089
"
48,1,"OROBAENA","CTRA. A 305 BAENA ALBENDIN KM. 58,200","14850","BAENA","C","957670706","957691807","orobaena@wanadoo.es","www.orobaena-sat.com","2199
"
49,9,"PESASUR","POLIGONO SEPES, PARCELAS, 2 Y 3","21400","AYAMONTE","Huelva","959321075","959320876","pesasur@pesasur.com","","2205
"
50,10,"RAICES SERRANAS  DE JABUGO","TOMAS PEREZ, 46","41006","SEVILLA","Sevilla","959561174","959561245","calidad@sierradejabugo.com","www.sierradejabugo.com","2081
"
51,4,"SALAZONES HERPAC","HERMANOS ROMERO ABREU, 1","11160","BARBATE","C","956430746","956433520","herpac@herpac.com","www.herpac.com","2086
"
52,4,"SALAZONES HERPAC","HERMANOS ROMERO ABREU, 2","11160","BARBATE","C","956430746","956433520","herpac@herpac.com","www.herpac.com","2086
"
53,9,"SALAZONES HERPAC","HERMANOS ROMERO ABREU, 3","11160","BARBATE","C","956430746","956433520","herpac@herpac.com","www.herpac.com","2086
"
54,9,"SALPESCA","P.I.EL OLIVAR, PARCELA, 3","11160","BARBATE","C","956430979","956431553","salpesca@salpesca.com","www.salpesca.com","2211
"
55,4,"COVAP","MAYOR, 56","14400","POZOBLANCO","C","957473035","957479924","comunicaciones@covap.es","www.covap.es","2143-2144
"
56,10,"COVAP","MAYOR, 56","14400","POZOBLANCO","C","957473035","957479924","comunicaciones@covap.es","www.covap.es","2143-2144
"
57,11,"COVAP","MAYOR, 56","14400","POZOBLANCO","C","957473035","957479924","comunicaciones@covap.es","www.covap.es","2143-2144
"
58,10,"SIERRA DE JABUGO","JUAN DE LEDESMA, 103","41006","SEVILLA","Sevilla","959122868","959122668","calidad@sierradejabugo.com","www.sierradejabugo.com","2080
"
59,6,"PRODUCTOS VEGETALES ALSUR","CTRA. CORDOBA-MALAGA KM 520.8","29200","ANTEQUERA","M","952840762","952840624","fpareja@alsurvegetales.com","www.alsurvegetales.com","2083
"
60,6,"UBAGO GROUP","CHARLES DARWIN, 3 P. TEC. ANDALUCIA","29590","CAMPANILLAS","M","951014070","952103160","ubago@ubagogroup.com","www.ubagogroup.com","2054
"
61,9,"VENSY ESPA","ERNEST HEMINGWAY, S/N","29004","MALAGA","M","952238040","952233359","lillan@vensy.es","www.vensy.es","2038
"
62,12,"BODEGAS PRIVILEGIO DEL CONDADO","C/SAN JOS","21710","BOLLULLOS PAR DEL CONDADO","Huelva","959410261","959410171","direccion@vinicoladelcondado.com","www.vinicoladelcondado.com","2033
"
63,10,"C.R.D.O. JAMON DE HUELVA   ","PLAZA DO","21200","ARACENA","HUELVA","959127900","959126869","info@jamondehuelva.es","www.jamondehuelva.com","2169-2176"
64,12,"C.R.D.O. CONDADO DE HUELVA Y VINAGRE DEL CONDADO DE H.            ","PLAZA ILDEFONSO PINTO S/N","21710","BOLLULLOS DEL CONDADO","HUELVA","959410322","959413859","cr@condadodehuelva.es ","www.condadodehuelva.es","2169-2176"
65,1,"C.R.D.O. ESTEPA","POL. IND. SIERRA SUR AVDA DEL MANTECADO S/N (APDO. CORREOS 181)","41560","ESTEPA","SEVILLA","955912630","955912630","secretaria@doestepa.es","www.doestepa.es","2169-2176"
66,5,"C.R.D.E. ESPARRAGOS DE HUETOR - TAJAR","CTRA. DE LA ESTACION S/N","18360","HUETOR - TAJAR","GRANADA","958333443","958332522","esparragodehuetortajar@andaluciajunta.es","www.esparragodehuetortajar.com","2169-2176"
67,5,"C.R.D.O.CHIRIMOYA DE LA COSTA TROPICAL DE GRANADA -MALAGA","AVDA, JUAN CARLOS I EDIFICIO ESTACI","18690","ALMU","GRANADA","958635865","959639201","chirimoya@crchirimoya.org","www.crchirimoya.org","2169-2176"
68,10,"C.R.D.O. JAMON DE PEDROCHES","CALLE REAL. 6","14440","VILLANUEVA DE CORDOBA","","957121084","959121084","secretariogeneral@jamondolospedroches.es","www.jamondolospedroches.es","2169-2176"
69,1,"C.R.D.O. PRIEGO DE CORDOBA","AVDA. NICETO ALCALA ZOMORA, 2","14800","PRIEGO DE CORDOBA","CORDOBA","957547034","957547189","do@priegodecordoda.org","www.priegodecordoba.org","2169-2176"
70,6,"C.R.D.D.E. CABALLA Y MELVA DE ANDALUC","GLORIETA DEL AGUA 4, EDIFICIO AJAMAR CENTER 2","41940","TOMARES","SEVILLA","954151823","","consejoregulador@caballaymelva.com","www.caballaymelvadeandalucia.org","2169-2176"
71,11,"GRUPO DESARROLLO RURAL DEL VALLE GUADALHORCE","C/ Dehesa, 80","29560","PIZARRA","M","952483868","952483869","info@valledelguadalhorce.com","www.quesosdeandalucia.com","2261-2263"
72,1,"C.R.D.O. SIERRA CAZORLA","CTRA. PEAL DE BECERRO-CAZORLA KM 10.5","23470","CAZORLA","Ja","953722121","953722113","denominacion@desierracazorla.es","www.desierracazorla.es","2157-2160"
73,1,"C.R.D.O. SIERRA MÃGICA","CTRA. MANCHA REAL - JODAR, S/N","23537","BEDMAR","Ja","953770090","953772272","denominacion@sierramagina.org","www.sierramagina.org","2157-2160"
74,1,"C.R.D.O. CAMPIÃ‘AS DE JAÃ‰N","C/CORREDERA SAN FERNANDO, 32","23400","UBEDA","Ja","953755889","953758387","direccion@campinasdejaen.es","www.campinasdejaen.es","2157-2160"
75,10,"CODISAL - SHC","LA MUELA, S/N","11150","VEJER DE LA FRONTERA","C","956448435","956448441","ildefonso@sohiscert.com","","2028"
76,13,"CODISAL - SHC","LA MUELA, S/N","11150","VEJER DE LA FRONTERA","C","956448435","956448441","ildefonso@sohiscert.com","","2028"
77,2,"IA MARCIENSE.","TRAVESIA SAN IGNACIO, S/N","41620","MARCHENA","Sevilla","955845400","955846484","iamar@marciense.es","www.marciense.es","2192"
78,7,"SEVILLANA DE CAFE, S.L. ","POLG.IND.HACIENDA DOLORES, C-7 NAVES,16-22","41500","ALCALA DE GUADAIRA","Sevilla","955631562","955334310","albermudez@cafeab.com","www.cafeab.com","2216"
79,1,"CASTILLO DE CANENA","C/REMEDIOS, 4","23420","CANENA","JaÃ©n","953770101","953770898","info@castillodecanena.com","www.castillodecanena.com","2139"
80,12,"CRDO MÃLAGA, SIERRAS DE MÃLAGA Y PASAS DE MÃLAGA","PLAZA DE LOS VIÃ‘EROS, 1","29008","MALAGA","MÃ¡laga","952227990","952277990","promycom@vinomalaga.com","www.museovinomalaga.com","2060-2061;2064"
81,16,"ASOCIACIÃ“N CAAE","AVDA. EMILIO LEMOS NÂº 2 MOD. 603","41020","SEVILLA","Sevilla","954689390","955003881","jjplomares@caaes.es","","2212-2213"
82,1,"OLEOCAMPO","CTRA. DEL MEGATIN, S/N","23640","TORRE DEL CAMPO","JaÃ©n","953410111","953415164","gerencia@oleocampo.com","www.oleocampo.com","2087"
